{
  "type": "FeatureCollection",
  "features": [
    {
      "type": "Feature",
      "properties": {
        "norad_id": 25590,
        "name": "COSMOS 2361",
        "group": "musson",
        "lat": 81.62376471493486,
        "lon": 41.78536793375376,
        "alt_km": 1002.7498401265839,
        "timestamp": "2025-12-12T07:43:20.783053+00:00",
        "meta_object_name": "COSMOS 2361",
        "meta_object_id": "1998-076A",
        "meta_epoch": "2025-12-12T00:34:20.098272",
        "meta_mean_motion": 13.73217397,
        "meta_eccentricity": 0.00300501,
        "meta_inclination": 82.9339,
        "meta_ra_of_asc_node": 344.6159,
        "meta_arg_of_pericenter": 267.6747,
        "meta_mean_anomaly": 145.8363,
        "meta_ephemeris_type": 0,
        "meta_classification_type": "U",
        "meta_norad_cat_id": 25590,
        "meta_element_set_no": 999,
        "meta_rev_at_epoch": 35101,
        "meta_bstar": 9.102882e-05,
        "meta_mean_motion_dot": 9.9e-07,
        "meta_mean_motion_ddot": 0,
        "tle_line1": "1 25590U 98076A   25346.02384373  .00000099  00000+0  91029-4 0  9993",
        "tle_line2": "2 25590  82.9339 344.6159 0030050 267.6747 145.8363 13.73217397351019"
      },
      "geometry": {
        "type": "Point",
        "coordinates": [
          41.78536793375376,
          81.62376471493486
        ]
      }
    },
    {
      "type": "Feature",
      "properties": {
        "norad_id": 26818,
        "name": "COSMOS 2378",
        "group": "musson",
        "lat": 23.253504693693078,
        "lon": 176.97684655401133,
        "alt_km": 968.7458716641113,
        "timestamp": "2025-12-12T07:43:20.783076+00:00",
        "meta_object_name": "COSMOS 2378",
        "meta_object_id": "2001-023A",
        "meta_epoch": "2025-12-12T00:16:08.499072",
        "meta_mean_motion": 13.74141904,
        "meta_eccentricity": 0.00323555,
        "meta_inclination": 82.9272,
        "meta_ra_of_asc_node": 0.2651,
        "meta_arg_of_pericenter": 206.9705,
        "meta_mean_anomaly": 214.325,
        "meta_ephemeris_type": 0,
        "meta_classification_type": "U",
        "meta_norad_cat_id": 26818,
        "meta_element_set_no": 999,
        "meta_rev_at_epoch": 22913,
        "meta_bstar": 6.1489044e-05,
        "meta_mean_motion_dot": 7.3e-07,
        "meta_mean_motion_ddot": 0,
        "tle_line1": "1 26818U 01023A   25346.01120948  .00000073  00000+0  61489-4 0  9997",
        "tle_line2": "2 26818  82.9272   0.2651 0032355 206.9705 214.3250 13.74141904229136"
      },
      "geometry": {
        "type": "Point",
        "coordinates": [
          176.97684655401133,
          23.253504693693078
        ]
      }
    },
    {
      "type": "Feature",
      "properties": {
        "norad_id": 27436,
        "name": "COSMOS 2389",
        "group": "musson",
        "lat": 1.5342364923550855,
        "lon": -52.51600725128687,
        "alt_km": 966.2590310740061,
        "timestamp": "2025-12-12T07:43:20.783090+00:00",
        "meta_object_name": "COSMOS 2389",
        "meta_object_id": "2002-026A",
        "meta_epoch": "2025-12-11T23:16:39.835200",
        "meta_mean_motion": 13.75154503,
        "meta_eccentricity": 0.00476461,
        "meta_inclination": 82.9502,
        "meta_ra_of_asc_node": 307.5545,
        "meta_arg_of_pericenter": 62.8297,
        "meta_mean_anomaly": 358.3699,
        "meta_ephemeris_type": 0,
        "meta_classification_type": "U",
        "meta_norad_cat_id": 27436,
        "meta_element_set_no": 999,
        "meta_rev_at_epoch": 18138,
        "meta_bstar": 9.0868328e-05,
        "meta_mean_motion_dot": 1.03e-06,
        "meta_mean_motion_ddot": 0,
        "tle_line1": "1 27436U 02026A   25345.96990550  .00000103  00000+0  90868-4 0  9992",
        "tle_line2": "2 27436  82.9502 307.5545 0047646  62.8297 358.3699 13.75154503181388"
      },
      "geometry": {
        "type": "Point",
        "coordinates": [
          -52.51600725128687,
          1.5342364923550855
        ]
      }
    },
    {
      "type": "Feature",
      "properties": {
        "norad_id": 27818,
        "name": "COSMOS 2398",
        "group": "musson",
        "lat": -40.90972029464243,
        "lon": -93.15060925270159,
        "alt_km": 1019.0958494006791,
        "timestamp": "2025-12-12T07:43:20.783102+00:00",
        "meta_object_name": "COSMOS 2398",
        "meta_object_id": "2003-023A",
        "meta_epoch": "2025-12-11T21:45:28.320192",
        "meta_mean_motion": 13.72385648,
        "meta_eccentricity": 0.00325489,
        "meta_inclination": 82.9485,
        "meta_ra_of_asc_node": 273.3122,
        "meta_arg_of_pericenter": 114.027,
        "meta_mean_anomaly": 314.8069,
        "meta_ephemeris_type": 0,
        "meta_classification_type": "U",
        "meta_norad_cat_id": 27818,
        "meta_element_set_no": 999,
        "meta_rev_at_epoch": 12805,
        "meta_bstar": 8.8661953e-05,
        "meta_mean_motion_dot": 9.7e-07,
        "meta_mean_motion_ddot": 0,
        "tle_line1": "1 27818U 03023A   25345.90657778  .00000097  00000+0  88662-4 0  9991",
        "tle_line2": "2 27818  82.9485 273.3122 0032548 114.0270 314.8069 13.72385648128055"
      },
      "geometry": {
        "type": "Point",
        "coordinates": [
          -93.15060925270159,
          -40.90972029464243
        ]
      }
    },
    {
      "type": "Feature",
      "properties": {
        "norad_id": 28380,
        "name": "COSMOS 2407",
        "group": "musson",
        "lat": 30.394515300314357,
        "lon": 29.04611070196628,
        "alt_km": 976.9294969828679,
        "timestamp": "2025-12-12T07:43:20.783113+00:00",
        "meta_object_name": "COSMOS 2407",
        "meta_object_id": "2004-028A",
        "meta_epoch": "2025-12-12T00:33:45.809568",
        "meta_mean_motion": 13.76313516,
        "meta_eccentricity": 0.00403568,
        "meta_inclination": 82.9607,
        "meta_ra_of_asc_node": 213.4231,
        "meta_arg_of_pericenter": 56.7953,
        "meta_mean_anomaly": 54.7307,
        "meta_ephemeris_type": 0,
        "meta_classification_type": "U",
        "meta_norad_cat_id": 28380,
        "meta_element_set_no": 999,
        "meta_rev_at_epoch": 7413,
        "meta_bstar": 6.5680561e-05,
        "meta_mean_motion_dot": 8e-07,
        "meta_mean_motion_ddot": 0,
        "tle_line1": "1 28380U 04028A   25346.02344687  .00000080  00000+0  65681-4 0  9996",
        "tle_line2": "2 28380  82.9607 213.4231 0040356  56.7953  54.7307 13.76313516 74131"
      },
      "geometry": {
        "type": "Point",
        "coordinates": [
          29.04611070196628,
          30.394515300314357
        ]
      }
    },
    {
      "type": "Feature",
      "properties": {
        "norad_id": 28521,
        "name": "COSMOS 2414",
        "group": "musson",
        "lat": 33.99213555930428,
        "lon": -170.2368334246315,
        "alt_km": 942.1372988632811,
        "timestamp": "2025-12-12T07:43:20.783124+00:00",
        "meta_object_name": "COSMOS 2414",
        "meta_object_id": "2005-002A",
        "meta_epoch": "2025-12-11T22:54:21.354048",
        "meta_mean_motion": 13.87902748,
        "meta_eccentricity": 0.00408511,
        "meta_inclination": 82.9492,
        "meta_ra_of_asc_node": 185.2539,
        "meta_arg_of_pericenter": 141.8778,
        "meta_mean_anomaly": 218.5288,
        "meta_ephemeris_type": 0,
        "meta_classification_type": "U",
        "meta_norad_cat_id": 28521,
        "meta_element_set_no": 999,
        "meta_rev_at_epoch": 5784,
        "meta_bstar": 7.2989428e-05,
        "meta_mean_motion_dot": 1.03e-06,
        "meta_mean_motion_ddot": 0,
        "tle_line1": "1 28521U 05002A   25345.95441382  .00000103  00000+0  72989-4 0  9992",
        "tle_line2": "2 28521  82.9492 185.2539 0040851 141.8778 218.5288 13.87902748 57848"
      },
      "geometry": {
        "type": "Point",
        "coordinates": [
          -170.2368334246315,
          33.99213555930428
        ]
      }
    },
    {
      "type": "Feature",
      "properties": {
        "norad_id": 32052,
        "name": "COSMOS 2429",
        "group": "musson",
        "lat": -8.282742083792945,
        "lon": 164.6447186711325,
        "alt_km": 1009.8754768229946,
        "timestamp": "2025-12-12T07:43:20.783135+00:00",
        "meta_object_name": "COSMOS 2429",
        "meta_object_id": "2007-038A",
        "meta_epoch": "2025-12-11T23:49:38.884224",
        "meta_mean_motion": 13.7514927,
        "meta_eccentricity": 0.00392802,
        "meta_inclination": 82.9803,
        "meta_ra_of_asc_node": 343.8594,
        "meta_arg_of_pericenter": 39.9033,
        "meta_mean_anomaly": 320.4999,
        "meta_ephemeris_type": 0,
        "meta_classification_type": "U",
        "meta_norad_cat_id": 32052,
        "meta_element_set_no": 999,
        "meta_rev_at_epoch": 91592,
        "meta_bstar": 8.1370909e-05,
        "meta_mean_motion_dot": 9.4e-07,
        "meta_mean_motion_ddot": 0,
        "tle_line1": "1 32052U 07038A   25345.99281116  .00000094  00000+0  81371-4 0  9992",
        "tle_line2": "2 32052  82.9803 343.8594 0039280  39.9033 320.4999 13.75149270915920"
      },
      "geometry": {
        "type": "Point",
        "coordinates": [
          164.6447186711325,
          -8.282742083792945
        ]
      }
    },
    {
      "type": "Feature",
      "properties": {
        "norad_id": 35635,
        "name": "COSMOS 2454",
        "group": "musson",
        "lat": 79.35348643631662,
        "lon": -149.9073703471724,
        "alt_km": 906.7119582605019,
        "timestamp": "2025-12-12T07:43:20.783146+00:00",
        "meta_object_name": "COSMOS 2454",
        "meta_object_id": "2009-039A",
        "meta_epoch": "2025-12-12T00:57:50.820192",
        "meta_mean_motion": 13.89928507,
        "meta_eccentricity": 0.00204556,
        "meta_inclination": 82.9553,
        "meta_ra_of_asc_node": 169.1753,
        "meta_arg_of_pericenter": 75.5946,
        "meta_mean_anomaly": 38.1596,
        "meta_ephemeris_type": 0,
        "meta_classification_type": "U",
        "meta_norad_cat_id": 35635,
        "meta_element_set_no": 999,
        "meta_rev_at_epoch": 83140,
        "meta_bstar": 8.09549e-05,
        "meta_mean_motion_dot": 1.16e-06,
        "meta_mean_motion_ddot": 0,
        "tle_line1": "1 35635U 09039A   25346.04017153  .00000116  00000+0  80955-4 0  9992",
        "tle_line2": "2 35635  82.9553 169.1753 0020455  75.5946  38.1596 13.89928507831400"
      },
      "geometry": {
        "type": "Point",
        "coordinates": [
          -149.9073703471724,
          79.35348643631662
        ]
      }
    },
    {
      "type": "Feature",
      "properties": {
        "norad_id": 36519,
        "name": "COSMOS 2463",
        "group": "musson",
        "lat": 30.214965381022274,
        "lon": -157.10579891571476,
        "alt_km": 1011.6325827860974,
        "timestamp": "2025-12-12T07:43:20.783156+00:00",
        "meta_object_name": "COSMOS 2463",
        "meta_object_id": "2010-017A",
        "meta_epoch": "2025-12-11T14:13:57.760896",
        "meta_mean_motion": 13.71649103,
        "meta_eccentricity": 0.00348194,
        "meta_inclination": 82.9614,
        "meta_ra_of_asc_node": 27.5553,
        "meta_arg_of_pericenter": 291.3603,
        "meta_mean_anomaly": 221.8907,
        "meta_ephemeris_type": 0,
        "meta_classification_type": "U",
        "meta_norad_cat_id": 36519,
        "meta_element_set_no": 999,
        "meta_rev_at_epoch": 78221,
        "meta_bstar": 6.3765742e-05,
        "meta_mean_motion_dot": 7.2e-07,
        "meta_mean_motion_ddot": 0,
        "tle_line1": "1 36519U 10017A   25345.59302964  .00000072  00000+0  63766-4 0  9990",
        "tle_line2": "2 36519  82.9614  27.5553 0034819 291.3603 221.8907 13.71649103782216"
      },
      "geometry": {
        "type": "Point",
        "coordinates": [
          -157.10579891571476,
          30.214965381022274
        ]
      }
    }
  ]
}